GSAT0101 (PRN E11)      
1 37846U 11060A   23205.06270932 -.00000070  00000+0  00000+0 0  9993
2 37846  57.1036  10.4417 0003199  62.9713 297.0761  1.70476110 73064
GSAT0102 (PRN E12)      
1 37847U 11060B   23205.56850325 -.00000069  00000+0  00000+0 0  9997
2 37847  57.1046  10.4280 0002261  22.2447 334.5831  1.70475475 73075
GSAT0103 (PRN E19)      
1 38857U 12055A   23202.75532866  .00000005  00000+0  00000+0 0  9998
2 38857  55.2682 130.7196 0004350 274.2412  85.7023  1.70473774 66919
GSAT0104 (PRN E20)      
1 38858U 12055B   23203.89802906  .00000010  00000+0  00000+0 0  9996
2 38858  55.2684 130.6897 0001747 279.3160  80.6630  1.70474013 66939
GSAT0201 (PRN E18)      
1 40128U 14050A   23204.22338540 -.00000090  00000+0  00000+0 0  9991
2 40128  49.9747 316.2922 1610717 138.7286 234.6628  1.85519248 58658
GSAT0202 (PRN E14)      
1 40129U 14050B   23205.56091227 -.00000088  00000+0  00000+0 0  9995
2 40129  49.9931 315.3095 1608395 139.5912 233.5672  1.85519835 60842
GSAT0203 (PRN E26)      
1 40544U 15017A   23201.32274240 -.00000084  00000+0  00000+0 0  9994
2 40544  56.8982  10.5221 0001696 217.4619 142.5371  1.70476176 51086
GSAT0204 (PRN E22)      
1 40545U 15017B   23203.92258950 -.00000075  00000+0  00000+0 0  9993
2 40545  56.9050  10.4656 0002242 191.5537 168.4542  1.70475768 14176
GSAT0205 (PRN E24)      
1 40889U 15045A   23200.17108001  .00000036  00000+0  00000+0 0  9996
2 40889  55.3861 251.0011 0002989   5.8432 354.2568  1.70473899 48877
GSAT0206 (PRN E30)      
1 40890U 15045B   23204.49784199  .00000045  00000+0  00000+0 0  9995
2 40890  55.3829 250.8771 0001856 323.8037  36.2652  1.70473794 48975
GSAT0209 (PRN E09)      
1 41174U 15079A   23205.25601510  .00000013  00000+0  00000+0 0  9993
2 41174  55.2858 130.3574 0004141 318.6799  41.2912  1.70473980 46725
GSAT0208 (PRN E08)      
1 41175U 15079B   23203.12923358  .00000006  00000+0  00000+0 0  9997
2 41175  55.2839 130.4140 0004141 311.7157  48.2447  1.70474089 47101
GSAT0211 (PRN E02)      
1 41549U 16030A   23200.31744909  .00000037  00000+0  00000+0 0  9995
2 41549  55.5323 250.9679 0003352 305.7362  54.3288  1.70473965 44533
GSAT0210 (PRN E01)      
1 41550U 16030B   23204.12848553  .00000044  00000+0  00000+0 0  9998
2 41550  55.5297 250.8641 0004164 269.8040  90.2306  1.70473747 44592
GSAT0207 (PRN E07)      
1 41859U 16069A   23204.96329895  .00000012  00000+0  00000+0 0  9992
2 41859  54.9488 130.4477 0004454 302.7347  57.2241  1.70473962 41348
GSAT0212 (PRN E03)      
1 41860U 16069B   23204.23142575  .00000010  00000+0  00000+0 0  9990
2 41860  54.9462 130.4651 0003301 330.4622  29.5192  1.70474192 41589
GSAT0213 (PRN E04)      
1 41861U 16069C   23204.59716044  .00000011  00000+0  00000+0 0  9999
2 41861  54.9485 130.4609 0004388 281.9839  77.9679  1.70472865 41452
GSAT0214 (PRN E05)      
1 41862U 16069D   23204.15777383  .00000010  00000+0  00000+0 0  9994
2 41862  54.9467 130.4670 0003389 287.5491  72.4137  1.70472702 41579
GSAT0215 (PRN E21)      
1 43055U 17079A   23204.64706503  .00000046  00000+0  00000+0 0  9991
2 43055  55.5066 250.6752 0003616 262.1827  97.8573  1.70474560 34928
GSAT0216 (PRN E25)      
1 43056U 17079B   23204.35243375  .00000045  00000+0  00000+0 0  9992
2 43056  55.5068 250.6832 0004946 270.2577  89.7673  1.70474676 34939
GSAT0217 (PRN E27)      
1 43057U 17079C   23205.15935571  .00000048  00000+0  00000+0 0  9991
2 43057  55.5048 250.6601 0004595 280.6976  79.3311  1.70474483 34930
GSAT0218 (PRN E31)      
1 43058U 17079D   23203.61966507  .00000042  00000+0  00000+0 0  9998
2 43058  55.5057 250.7000 0005699 266.9781  93.0404  1.70474570 34935
GSAT0221 (PRN E15)      
1 43564U 18060A   23203.51919866 -.00000075  00000+0  00000+0 0  9993
2 43564  57.2793  10.3794 0001467 274.3086  85.6868  1.70476068 31081
GSAT0222 (PRN E33)      
1 43565U 18060B   23200.80429348 -.00000085  00000+0  00000+0 0  9995
2 43565  57.2824  10.4529 0001615 200.6649 159.3393  1.70475971 31080
GSAT0219 (PRN E36)      
1 43566U 18060C   23205.13278920 -.00000070  00000+0  00000+0 0  9999
2 43566  57.2823  10.3392 0000744 306.7627  53.2452  1.70476017 31139
GSAT0220 (PRN E13)      
1 43567U 18060D   23203.59341514 -.00000075  00000+0  00000+0 0  9993
2 43567  57.2817  10.3812 0000909 290.4440  69.5585  1.70476054 31098
GSAT0223 (PRN E34)      
1 49809U 21116A   23205.20192677 -.00000070  00000+0  00000+0 0  9993
2 49809  57.2736  10.2345 0002745 149.2872 208.1471  1.70476172 10120
GSAT0224 (PRN E10)      
1 49810U 21116B   23203.26310769 -.00000076  00000+0  00000+0 0  9999
2 49810  57.2745  10.2846 0002515 134.5403 225.4755  1.70476257 10110
